NORAD_CAT_ID,OBJECT_NAME,OBJECT_TYPE,EPOCH,MEAN_MOTION,ECCENTRICITY,INCLINATION,RA_OF_ASC_NODE,ARG_OF_PERICENTER,MEAN_ANOMALY,BSTAR,MEAN_MOTION_DOT,MEAN_MOTION_DDOT,TLE_LINE0,TLE_LINE1,TLE_LINE2,SEMIMAJOR_AXIS,PERIOD,APOGEE,PERIGEE,DECAYED
49418.0,STARLINK-3111,PAYLOAD,2022-01-14 06:00:00,15.26892196,0.0001541,53.2175,193.0446,55.4251,167.8475,-0.026511,-0.00658683,0.0,0 STARLINK-3111,1 49418U 21104L   22014.25001157 -.00658683  00000-0 -26511-1 0  9998,2 49418  53.2175 193.0446 0001541  55.4251 167.8475 15.26892196 10931,6863.246,94.309,486.169,484.054,0.0
49418.0,STARLINK-3111,PAYLOAD,2022-01-14 14:00:01,15.264254199999998,0.0001625,53.2176,191.5058,50.723,205.5524,-0.026875,-0.00658336,0.0,0 STARLINK-3111,1 49418U 21104L   22014.58334491 -.00658336  00000-0 -26875-1 0  9992,2 49418  53.2176 191.5058 0001625  50.7230 205.5524 15.26425420  3650,6864.646,94.338,487.626,485.395,0.0
49418.0,STARLINK-3111,PAYLOAD,2022-01-14 22:00:00,15.25956691,0.0001571,53.2175,189.9691,50.5189,238.1985,-0.027095,-0.00654617,0.0,0 STARLINK-3111,1 49418U 21104L   22014.91667824 -.00654617  00000-0 -27095-1 0  9991,2 49418  53.2175 189.9691 0001571  50.5189 238.1985 15.25956691  3655,6866.051,94.367,488.995,486.838,0.0
49418.0,STARLINK-3111,PAYLOAD,2022-01-15 14:00:01,15.25026981,0.0001568,53.2177,186.8949,45.2146,306.7687,-0.028138,-0.00660516,0.0,0 STARLINK-3111,1 49418U 21104L   22015.58335648 -.00660516  00000-0 -28138-1 0  9995,2 49418  53.2177 186.8949 0001568  45.2146 306.7687 15.25026981 11132,6868.840999999999,94.425,491.783,489.629,0.0
49418.0,STARLINK-3111,PAYLOAD,2022-01-15 22:00:01,15.24557507,0.0001412,53.2175,185.3615,51.476000000000006,331.2677,-0.028313,-0.00655643,0.0,0 STARLINK-3111,1 49418U 21104L   22015.91668981 -.00655643  00000-0 -28313-1 0  9991,2 49418  53.2175 185.3615 0001412  51.4760 331.2677 15.24557507  3666,6870.251,94.454,493.087,491.146,0.0
49418.0,STARLINK-3111,PAYLOAD,2022-01-16 14:00:01,15.23627209,0.000167,53.2176,182.2941,41.2759,41.2428,-0.029359,-0.00660793,0.0,0 STARLINK-3111,1 49418U 21104L   22016.58334491 -.00660793  00000-0 -29359-1 0  9994,2 49418  53.2176 182.2941 0001670  41.2759  41.2428 15.23627209  3642,6873.0480000000025,94.511,496.061,493.765,0.0
49418.0,STARLINK-3111,PAYLOAD,2022-01-16 22:00:00,15.23156445,0.0001496999999999,53.2173,180.7637,51.7349,59.8629,-0.029422,-0.00653497,0.0,0 STARLINK-3111,1 49418U 21104L   22016.91667824 -.00653497  00000-0 -29422-1 0  9994,2 49418  53.2173 180.7637 0001497  51.7349  59.8629 15.23156445  3649,6874.464,94.541,497.358,495.3,0.0
49418.0,STARLINK-3111,PAYLOAD,2022-01-17 00:00:00,15.23043457,0.0001546,53.2171,180.3805,56.6469,152.1319,-0.029817,-0.00659582,0.0,0 STARLINK-3111,1 49418U 21104L   22017.00001157 -.00659582  00000-0 -29817-1 0  9995,2 49418  53.2171 180.3805 0001546  56.6469 152.1319 15.23043457 11350,6874.804,94.548,497.732,495.606,0.0
49418.0,STARLINK-3111,PAYLOAD,2022-01-17 14:00:01,15.22226028,0.0001773,53.2176,177.7028,43.9333,124.1392,-0.030487,-0.0065833,0.0,0 STARLINK-3111,1 49418U 21104L   22017.58334491 -.00658330  00000-0 -30487-1 0  9993,2 49418  53.2176 177.7028 0001773  43.9333 124.1392 15.22226028  3653,6877.265,94.598,500.349,497.91,0.0
49418.0,STARLINK-3111,PAYLOAD,2022-01-17 22:00:00,15.2175661,0.0001581,53.2172,176.1756,54.4349,141.0343,-0.030644,-0.00652966,0.0,0 STARLINK-3111,1 49418U 21104L   22017.91667824 -.00652966  00000-0 -30644-1 0  9993,2 49418  53.2172 176.1756 0001581  54.4349 141.0343 15.21756610  3648,6878.679,94.627,501.632,499.456,0.0
49418.0,STARLINK-3111,PAYLOAD,2022-01-18 06:00:00,15.2129136,0.0001628,53.2173,174.6466,50.8781,171.4276,-0.031176,-0.00655077,0.0,0 STARLINK-3111,1 49418U 21104L   22018.25001157 -.00655077  00000-0 -31176-1 0  9999,2 49418  53.2173 174.6466 0001628  50.8781 171.4276 15.21291360 11548,6880.081,94.656,503.066,500.826,0.0
49418.0,STARLINK-3111,PAYLOAD,2022-01-18 14:00:01,15.20825573,0.0001767,53.2175,173.1216,45.7055,202.8747,-0.031687,-0.00656636,0.0,0 STARLINK-3111,1 49418U 21104L   22018.58334491 -.00656636  00000-0 -31687-1 0  9994,2 49418  53.2175 173.1216 0001767  45.7055 202.8747 15.20825573  3640,6881.486,94.685,504.567,502.135,0.0
49418.0,STARLINK-3111,PAYLOAD,2022-01-18 22:00:00,15.20358851,0.0001463,53.2172,171.5974,59.6863,214.6078,-0.032083,-0.00655814,0.0,0 STARLINK-3111,1 49418U 21104L   22018.91667824 -.00655814  00000-0 -32083-1 0  9998,2 49418  53.2172 171.5974 0001463  59.6863 214.6078 15.20358851  3642,6882.894,94.714,505.766,503.752,0.0
49418.0,STARLINK-3111,PAYLOAD,2022-01-19 06:00:02,15.19834364,0.0001653,53.2169,170.0731,42.324,257.216,-0.028293,-0.00574942,0.0,0 STARLINK-3111,1 49418U 21104L   22019.25002315 -.00574942  00000-0 -28293-1 0  9994,2 49418  53.2169 170.0731 0001653  42.3240 257.2160 15.19834364 11697,6884.478,94.747,507.481,505.205,0.0
49418.0,STARLINK-3111,PAYLOAD,2022-01-19 14:00:01,15.19339281,0.0001435,53.2169,168.5509,63.4824,260.6036,-0.026755,-0.00538174,0.0,0 STARLINK-3111,1 49418U 21104L   22019.58334491 -.00538174  00000-0 -26755-1 0  9991,2 49418  53.2169 168.5509 0001435  63.4824 260.6036 15.19339281 11746,6885.973000000001,94.778,508.826,506.85,0.0
49418.0,STARLINK-3111,PAYLOAD,2022-01-19 22:00:00,15.18960203,0.0001395,53.2172,167.0289,55.5052,292.5685,-0.033507,-0.00664514,0.0,0 STARLINK-3111,1 49418U 21104L   22019.91667824 -.00664514  00000-0 -33507-1 0  9998,2 49418  53.2172 167.0289 0001395  55.5052 292.5685 15.18960203 11791,6887.119000000002,94.802,509.945,508.023,0.0
49418.0,STARLINK-3111,PAYLOAD,2022-01-20 14:00:01,15.18027329,0.0001733,53.2176,163.9884,38.9614,355.4962,-0.034495,-0.00665791,0.0,0 STARLINK-3111,1 49418U 21104L   22020.58334491 -.00665791  00000-0 -34495-1 0  9999,2 49418  53.2176 163.9884 0001733  38.9614 355.4962 15.18027329  3641,6889.94,94.86,512.999,510.611,0.0
49418.0,STARLINK-3111,PAYLOAD,2022-01-20 22:00:00,15.17559944,0.0001494,53.2172,162.4704,48.3787,8.4294,-0.034843,-0.00663606,0.0,0 STARLINK-3111,1 49418U 21104L   22020.91667824 -.00663606  00000-0 -34843-1 0  9995,2 49418  53.2172 162.4704 0001494  48.3787   8.4294 15.17559944  3625,6891.355,94.889,514.249,512.19,0.0
49418.0,STARLINK-3111,PAYLOAD,2022-01-21 06:00:00,15.17092413,0.0001626999999999,53.2173,160.9513,42.361,36.239,-0.035286,-0.00663096,0.0,0 STARLINK-3111,1 49418U 21104L   22021.25001157 -.00663096  00000-0 -35286-1 0  9999,2 49418  53.2173 160.9513 0001627  42.3610  36.2390 15.17092413 12005,6892.77,94.918,515.757,513.514,0.0
49418.0,STARLINK-3111,PAYLOAD,2022-01-21 14:00:01,15.16626919,0.0001852,53.2174,159.4366,38.4388,61.3894,-0.03587,-0.00665008,0.0,0 STARLINK-3111,1 49418U 21104L   22021.58334491 -.00665008  00000-0 -35870-1 0  9999,2 49418  53.2174 159.4366 0001852  38.4388  61.3894 15.16626919  3644,6894.181,94.948,517.323,514.769,0.0
49418.0,STARLINK-3111,PAYLOAD,2022-01-21 22:00:00,15.16159586,0.0001582,53.2172,157.9216,49.0945,71.4024,-0.036222,-0.0066271999999999,0.0,0 STARLINK-3111,1 49418U 21104L   22021.91667824 -.00662720  00000-0 -36222-1 0  9995,2 49418  53.2172 157.9216 0001582  49.0945  71.4024 15.16159586  3622,6895.597,94.977,518.553,516.372,0.0
49418.0,STARLINK-3111,PAYLOAD,2022-01-22 06:00:00,15.15575202,0.0001872,53.2167,156.4074,33.9949,106.6716,-0.027329,-0.00490928,0.0,0 STARLINK-3111,1 49418U 21104L   22022.25001157 -.00490928  00000-0 -27329-1 0  9991,2 49418  53.2167 156.4074 0001872  33.9949 106.6716 15.15575202 12153,6897.37,95.013,520.526,517.944,0.0
49418.0,STARLINK-3111,PAYLOAD,2022-01-22 14:00:01,15.15226081,0.0001999,53.2173,154.8944,37.6977,122.4556,-0.037233,-0.00663301,0.0,0 STARLINK-3111,1 49418U 21104L   22022.58334491 -.00663301  00000-0 -37233-1 0  9999,2 49418  53.2173 154.8944 0001999  37.6977 122.4556 15.15226081 12202,6898.429,95.035,521.673,518.915,0.0
49418.0,STARLINK-3111,PAYLOAD,2022-01-22 22:00:00,15.14760333,0.0001665999999999,53.2172,153.3826,49.8292,129.3104,-0.037764,-0.00663836,0.0,0 STARLINK-3111,1 49418U 21104L   22022.91667824 -.00663836  00000-0 -37764-1 0  9997,2 49418  53.2172 153.3826 0001666  49.8292 129.3104 15.14760333  3634,6899.843000000003,95.065,522.8580000000002,520.559,0.0
49418.0,STARLINK-3111,PAYLOAD,2022-01-23 14:00:01,15.13825593,0.0001954,53.2173,150.362,41.3019,174.1306,-0.038654,-0.00661879,0.0,0 STARLINK-3111,1 49418U 21104L   22023.58334491 -.00661879  00000-0 -38654-1 0  9996,2 49418  53.2173 150.3620 0001954  41.3019 174.1306 15.13825593  3639,6902.683000000001,95.123,525.8969999999998,523.1990000000002,0.0
49418.0,STARLINK-3111,PAYLOAD,2022-01-23 22:00:00,15.13361668,0.0001674,53.2172,148.8533,50.13399999999999,182.6024,-0.03942,-0.00665914,0.0,0 STARLINK-3111,1 49418U 21104L   22023.91667824 -.00665914  00000-0 -39420-1 0  9998,2 49418  53.2172 148.8533 0001674  50.1340 182.6024 15.13361668 12401,6904.094,95.152,527.115,524.803,0.0
49418.0,STARLINK-3111,PAYLOAD,2022-01-24 14:00:01,15.12426172,0.0002035,53.2173,145.8394,36.8031,228.8622,-0.040231,-0.0066224999999999,0.0,0 STARLINK-3111,1 49418U 21104L   22024.58334491 -.00662250  00000-0 -40231-1 0  9995,2 49418  53.2173 145.8394 0002035  36.8031 228.8622 15.12426172  3626,6906.941,95.211,530.211,527.4,0.0
49418.0,STARLINK-3111,PAYLOAD,2022-01-24 22:00:00,15.11962632,0.0001616,53.2172,144.3338,50.0998,231.1878,-0.041093,-0.00667328,0.0,0 STARLINK-3111,1 49418U 21104L   22024.91667824 -.00667328  00000-0 -41093-1 0  9999,2 49418  53.2172 144.3338 0001616  50.0998 231.1878 15.11962632  3626,6908.352,95.24,531.3340000000002,529.101,0.0
49418.0,STARLINK-3111,PAYLOAD,2022-01-25 06:00:00,15.11493302,0.0001726,53.2173,142.828,43.4015,252.9504,-0.041343,-0.00662945,0.0,0 STARLINK-3111,1 49418U 21104L   22025.25001157 -.00662945  00000-0 -41343-1 0  9996,2 49418  53.2173 142.8280 0001726  43.4015 252.9504 15.11493302 12602,6909.781999999997,95.27,532.84,530.455,0.0
